PROMETHEUS 2-3          
1 41855U 16067H   25294.62944955  .00222318  00000+0  17449-2 0  9993
2 41855  98.0409 164.2477 0006114 109.7326 250.4595 15.70841621491252
CORVUS BC2              
1 42846U 17042X   25294.75762020  .00007120  00000+0  51734-3 0  9991
2 42846  97.3821 101.0803 0013347 204.2774 155.7825 15.04075971451195
CORVUS BC1              
1 42847U 17042Y   25294.45398357  .00006554  00000+0  47353-3 0  9999
2 42847  97.3874 101.4315 0012426 176.4018 183.7300 15.04323294451175
MIRATA                  
1 43015U 17073C   25294.69923848  .02932892  16355-1  24696-2 0  9997
2 43015  97.5012 198.3035 0007555 274.2109  85.8315 16.16694262431769
MAKERSAT 0              
1 43016U 17073D   25294.78414303  .00028384  00000+0  10149-2 0  9995
2 43016  97.4947 171.8778 0136079  34.5311 326.4670 15.20346895430095
SIRION PATHFINDER-2     
1 43759U 18099B   25294.72465831  .00008391  00000+0  49900-3 0  9998
2 43759  97.4620 344.4402 0010545  51.6785 308.5392 15.11458173376569
CORVUS BC4              
1 43767U 18099K   25294.76466031  .00006770  00000+0  42258-3 0  9992
2 43767  97.4429 339.6563 0010412 101.9636 258.2761 15.09764673376390
SPACEBEE-7              
1 43816U 18099BL  25294.77656209  .00083027  00000+0  15726-2 0  9995
2 43816  97.4805   8.2979 0003992 349.9608  10.1562 15.48056945377463
SHIELDS 1               
1 43850U 18104B   25294.57304044  .00078601  00000+0  56243-3 0  9997
2 43850  85.0058 301.4862 0003635  37.1216 323.0304 15.73462988382426
DUCHIFAT-3              
1 44854U 19089C   25294.85657823  .00177430  00000+0  15349-2 0  9993
2 44854  36.9343 211.9935 0009916 270.5154  89.4473 15.67641006323913
M2 PATHFINDER           
1 45727U 20037E   25294.79457005  .00005224  00000+0  39197-3 0  9990
2 45727  97.8154 118.5427 0011342 235.7751 124.2400 15.03041157289661
NETSAT-4                
1 46504U 20068U   25294.82725204  .00023013  00000+0  69034-3 0  9990
2 46504  97.8573 280.6790 0009533  89.8190 270.4144 15.34436394279100
NETSAT-3                
1 46505U 20068V   25294.82023090  .00023136  00000+0  72718-3 0  9994
2 46505  97.8589 279.2992 0009105  99.7909 260.4360 15.32954627279043
NETSAT-1                
1 46506U 20068W   25294.80414238  .00017322  00000+0  65169-3 0  9993
2 46506  97.8629 276.0481 0008558 113.3825 246.8314 15.27175498278825
NETSAT-2                
1 46507U 20068X   25294.77097617  .00025367  00000+0  75838-3 0  9990
2 46507  97.8582 280.0639 0007750 109.9023 250.3054 15.34537946279031
WILDTRACKCUBE-SIMBA     
1 47941U 21022K   25294.87773641  .00074603  00000+0  10300-2 0  9992
2 47941  97.4069 203.1987 0008664 152.4262 207.7454 15.56886982253993
GREENCUBE (IO-117)      
1 53109U 22080E   25291.63654971 -.00000003  00000+0  00000+0 0  9992
2 53109  70.1629  22.2370 0008699 340.6096  19.4232  6.42583486 76540
SITRO-AIS 5 (KATYS)     
1 57176U 23091L   25294.83163817  .00017458  00000+0  74907-3 0  9994
2 57176  97.5426 352.1129 0012409 216.2111 143.8287 15.22717061127986
SITRO-AIS 6 (CHIRKIN)   
1 57192U 23091AC  25294.83976424  .00009836  00000+0  43373-3 0  9992
2 57192  97.5425 352.0803 0012038 214.7136 145.3315 15.21932003127982
SITRO-AIS 8 (ANOKHIN)   
1 57193U 23091AD  25294.86179068  .00018339  00000+0  74913-3 0  9997
2 57193  97.5420 352.9492 0011773 214.3697 145.6779 15.24377112128046
SITRO-AIS 7 (FARTUSHNIY)
1 57194U 23091AE  25294.87147057  .00008368  00000+0  37123-3 0  9995
2 57194  97.5424 352.0269 0011796 215.6211 144.4238 15.21779009127982
SITRO-AIS 10 (BURDAEV)  
1 57199U 23091AK  25294.85327017  .00023011  00000+0  83232-3 0  9998
2 57199  97.5434 356.0301 0008314 191.7812 168.3234 15.28407040128232
SITRO-AIS 9 (SHCHUKIN)  
1 57201U 23091AM  25294.88898375  .00022231  00000+0  81019-3 0  9999
2 57201  97.5432 355.9332 0008316 191.9846 168.1196 15.28166453128232
SITRO-AIS 12 (SMIRENNIY)
1 57204U 23091AQ  25294.85295171  .00023596  00000+0  85383-3 0  9997
2 57204  97.5442 356.2380 0008302 185.5934 174.5214 15.28388017128240
SITRO-AIS 11 (SHEFFER)  
1 57208U 23091AU  25294.85189764  .00023901  00000+0  85852-3 0  9992
2 57208  97.5441 356.3688 0008261 185.6280 174.4868 15.28627993128258
ROBUSTA-1E (ENSO)       
1 58470U 23185J   25295.07210078  .00430002  70884-4  14830-2 0  9999
2 58470  97.3516  16.4799 0006278 272.5244  87.5310 15.89509478106087
SITRO-AIS 25            
1 59066U 24039R   25294.86383936  .00008072  00000+0  65786-3 0  9993
2 59066  95.3914  71.5562 0153581  80.1480 281.7044 14.90750470 89188
SITRO-AIS 26            
1 59067U 24039S   25294.83617833  .00007704  00000+0  63055-3 0  9995
2 59067  95.3915  71.4776 0153655  80.5562 281.2994 14.90592446 89178
SITRO-AIS 27            
1 59068U 24039T   25294.86821656  .00008105  00000+0  65813-3 0  9999
2 59068  95.3916  71.6713 0153045  79.5762 282.2669 14.90941785 89192
SITRO-AIS 28            
1 59071U 24039U   25294.85164378  .00008195  00000+0  66514-3 0  9991
2 59071  95.3915  71.6941 0152758  79.5211 282.3185 14.90983599 89190
GRBBETA                 
1 60237U 24128C   25294.57398059  .00006227  00000+0  44737-3 0  9997
2 60237  61.9918 331.9430 0056960  85.4897 275.2698 15.04019241 70344
OOV-CUBE (TUBSAT-30)    
1 60240U 24128F   25294.59811990  .00003916  00000+0  30922-3 0  9990
2 60240  61.9966 336.6084 0058640  83.0687 277.7069 15.01146260 70276
ROBUSTA-3A (MEDITERRAN*)
1 60243U 24128J   25294.60027552  .00010056  00000+0  65841-3 0  9999
2 60243  61.9883 329.1907 0056660  79.4927 281.2543 15.06949737 70401
LASARSAT                
1 62391U 24247Q   25294.79615352  .00029033  00000+0  95237-3 0  9995
2 62391  44.9768 146.5609 0004928 149.5183 210.5988 15.31151543 46592
CROCUBE                 
1 62394U 24247T   25294.76477292  .00029414  00000+0  95105-3 0  9991
2 62394  44.9748 146.2749 0006250 155.4887 204.6295 15.31602559 46595
